STARLINK-1559           
1 46077U 20055BC  26068.23360559  .00042685  00000+0  14779-2 0  9995
2 46077  53.0254  76.0659 0004229  33.9710 326.1559 15.29461733309518
STARLINK-31992          
1 60023U 24111H   26068.23458478  .00000925  00000+0  43348-4 0  9994
2 60023  53.1600  77.7534 0000957  85.9323 274.1787 15.30191840 98973
